{
  "type": "FeatureCollection",
  "features": [
    {
      "type": "Feature",
      "properties": {
        "norad_id": 40069,
        "name": "METEOR-M 2",
        "group": "weather",
        "lat": -25.603884240520635,
        "lon": 146.22395349193258,
        "alt_km": 822.6277486963972,
        "timestamp": "2025-12-18T23:35:48.688792+00:00",
        "meta_object_name": "METEOR-M 2",
        "meta_object_id": "2014-037A",
        "meta_epoch": "2025-12-18T14:11:03.809184",
        "meta_mean_motion": 14.21387964,
        "meta_eccentricity": 0.00052281,
        "meta_inclination": 98.4897,
        "meta_ra_of_asc_node": 329.9513,
        "meta_arg_of_pericenter": 191.1052,
        "meta_mean_anomaly": 169.0011,
        "meta_ephemeris_type": 0,
        "meta_classification_type": "U",
        "meta_norad_cat_id": 40069,
        "meta_element_set_no": 999,
        "meta_rev_at_epoch": 59366,
        "meta_bstar": -6.665163e-06,
        "meta_mean_motion_dot": -5.6e-07,
        "meta_mean_motion_ddot": 0,
        "tle_line1": "1 40069U 14037A   25352.59101631 -.00000056  00000+0 -66652-5 0  9999",
        "tle_line2": "2 40069  98.4897 329.9513 0005228 191.1052 169.0011 14.21387964593666"
      },
      "geometry": {
        "type": "Point",
        "coordinates": [
          146.22395349193258,
          -25.603884240520635
        ]
      }
    },
    {
      "type": "Feature",
      "properties": {
        "norad_id": 40267,
        "name": "HIMAWARI-8",
        "group": "weather",
        "lat": -0.0036044344130831776,
        "lon": -137.5595722390205,
        "alt_km": 35784.87554256579,
        "timestamp": "2025-12-18T23:35:48.688804+00:00",
        "meta_object_name": "HIMAWARI-8",
        "meta_object_id": "2014-060A",
        "meta_epoch": "2025-12-18T13:42:40.020192",
        "meta_mean_motion": 1.0027185,
        "meta_eccentricity": 8.575e-05,
        "meta_inclination": 0.0103,
        "meta_ra_of_asc_node": 91.2039,
        "meta_arg_of_pericenter": 201.5636,
        "meta_mean_anomaly": 141.0013,
        "meta_ephemeris_type": 0,
        "meta_classification_type": "U",
        "meta_norad_cat_id": 40267,
        "meta_element_set_no": 999,
        "meta_rev_at_epoch": 4094,
        "meta_bstar": 0,
        "meta_mean_motion_dot": -2.5e-06,
        "meta_mean_motion_ddot": 0,
        "tle_line1": "1 40267U 14060A   25352.57129653 -.00000250  00000+0  00000+0 0  9991",
        "tle_line2": "2 40267   0.0103  91.2039 0000857 201.5636 141.0013  1.00271850 40943"
      },
      "geometry": {
        "type": "Point",
        "coordinates": [
          -137.5595722390205,
          -0.0036044344130831776
        ]
      }
    },
    {
      "type": "Feature",
      "properties": {
        "norad_id": 40367,
        "name": "FENGYUN 2G",
        "group": "weather",
        "lat": 4.979989212364735,
        "lon": -178.84711469095714,
        "alt_km": 35789.982428002186,
        "timestamp": "2025-12-18T23:35:48.688817+00:00",
        "meta_object_name": "FENGYUN 2G",
        "meta_object_id": "2014-090A",
        "meta_epoch": "2025-12-18T16:09:33.744672",
        "meta_mean_motion": 1.00262073,
        "meta_eccentricity": 0.00027618,
        "meta_inclination": 5.1827,
        "meta_ra_of_asc_node": 75.0297,
        "meta_arg_of_pericenter": 204.9924,
        "meta_mean_anomaly": 149.2449,
        "meta_ephemeris_type": 0,
        "meta_classification_type": "U",
        "meta_norad_cat_id": 40367,
        "meta_element_set_no": 999,
        "meta_rev_at_epoch": 4018,
        "meta_bstar": 0,
        "meta_mean_motion_dot": -2.78e-06,
        "meta_mean_motion_ddot": 0,
        "tle_line1": "1 40367U 14090A   25352.67330723 -.00000278  00000+0  00000+0 0  9998",
        "tle_line2": "2 40367   5.1827  75.0297 0002761 204.9924 149.2449  1.00262073 40188"
      },
      "geometry": {
        "type": "Point",
        "coordinates": [
          -178.84711469095714,
          4.979989212364735
        ]
      }
    },
    {
      "type": "Feature",
      "properties": {
        "norad_id": 40732,
        "name": "METEOSAT-11 (MSG-4)",
        "group": "weather",
        "lat": 0.9224887402782117,
        "lon": 90.96594579597546,
        "alt_km": 35788.22642725669,
        "timestamp": "2025-12-18T23:35:48.688829+00:00",
        "meta_object_name": "METEOSAT-11 (MSG-4)",
        "meta_object_id": "2015-034A",
        "meta_epoch": "2025-12-18T06:29:27.376800",
        "meta_mean_motion": 1.00269219,
        "meta_eccentricity": 8.854e-05,
        "meta_inclination": 2.7498,
        "meta_ra_of_asc_node": 71.9876,
        "meta_arg_of_pericenter": 134.1777,
        "meta_mean_anomaly": 347.5537,
        "meta_ephemeris_type": 0,
        "meta_classification_type": "U",
        "meta_norad_cat_id": 40732,
        "meta_element_set_no": 999,
        "meta_rev_at_epoch": 540,
        "meta_bstar": 0,
        "meta_mean_motion_dot": 8.4e-07,
        "meta_mean_motion_ddot": 0,
        "tle_line1": "1 40732U 15034A   25352.27045575  .00000084  00000+0  00000+0 0  9991",
        "tle_line2": "2 40732   2.7498  71.9876 0000885 134.1777 347.5537  1.00269219  5400"
      },
      "geometry": {
        "type": "Point",
        "coordinates": [
          90.96594579597546,
          0.9224887402782117
        ]
      }
    },
    {
      "type": "Feature",
      "properties": {
        "norad_id": 41105,
        "name": "ELEKTRO-L 2",
        "group": "weather",
        "lat": -0.5654250652920866,
        "lon": 67.35768277428726,
        "alt_km": 35798.53305294463,
        "timestamp": "2025-12-18T23:35:48.688840+00:00",
        "meta_object_name": "ELEKTRO-L 2",
        "meta_object_id": "2015-074A",
        "meta_epoch": "2025-12-18T01:14:27.090816",
        "meta_mean_motion": 1.00272597,
        "meta_eccentricity": 0.00035785,
        "meta_inclination": 6.2385,
        "meta_ra_of_asc_node": 72.7657,
        "meta_arg_of_pericenter": 208.6234,
        "meta_mean_anomaly": 169.659,
        "meta_ephemeris_type": 0,
        "meta_classification_type": "U",
        "meta_norad_cat_id": 41105,
        "meta_element_set_no": 999,
        "meta_rev_at_epoch": 3669,
        "meta_bstar": 0,
        "meta_mean_motion_dot": -9.7e-07,
        "meta_mean_motion_ddot": 0,
        "tle_line1": "1 41105U 15074A   25352.05170244 -.00000097  00000+0  00000+0 0  9993",
        "tle_line2": "2 41105   6.2385  72.7657 0003578 208.6234 169.6590  1.00272597 36692"
      },
      "geometry": {
        "type": "Point",
        "coordinates": [
          67.35768277428726,
          -0.5654250652920866
        ]
      }
    },
    {
      "type": "Feature",
      "properties": {
        "norad_id": 41752,
        "name": "INSAT-3DR",
        "group": "weather",
        "lat": 0.1031045343669323,
        "lon": 155.62217379896236,
        "alt_km": 35812.082253576285,
        "timestamp": "2025-12-18T23:35:48.688853+00:00",
        "meta_object_name": "INSAT-3DR",
        "meta_object_id": "2016-054A",
        "meta_epoch": "2025-12-18T13:38:54.645792",
        "meta_mean_motion": 1.00271614,
        "meta_eccentricity": 0.00141407,
        "meta_inclination": 0.1063,
        "meta_ra_of_asc_node": 86.557,
        "meta_arg_of_pericenter": 184.8811,
        "meta_mean_anomaly": 94.7084,
        "meta_ephemeris_type": 0,
        "meta_classification_type": "U",
        "meta_norad_cat_id": 41752,
        "meta_element_set_no": 999,
        "meta_rev_at_epoch": 3400,
        "meta_bstar": 0,
        "meta_mean_motion_dot": -5.2e-07,
        "meta_mean_motion_ddot": 0,
        "tle_line1": "1 41752U 16054A   25352.56868803 -.00000052  00000+0  00000+0 0  9992",
        "tle_line2": "2 41752   0.1063  86.5570 0014140 184.8811  94.7084  1.00271614 34004"
      },
      "geometry": {
        "type": "Point",
        "coordinates": [
          155.62217379896236,
          0.1031045343669323
        ]
      }
    },
    {
      "type": "Feature",
      "properties": {
        "norad_id": 41836,
        "name": "HIMAWARI-9",
        "group": "weather",
        "lat": -0.040161736071042974,
        "lon": -137.50158986647241,
        "alt_km": 35790.04131255027,
        "timestamp": "2025-12-18T23:35:48.688865+00:00",
        "meta_object_name": "HIMAWARI-9",
        "meta_object_id": "2016-064A",
        "meta_epoch": "2025-12-18T13:42:40.000320",
        "meta_mean_motion": 1.00268189,
        "meta_eccentricity": 0.00019062,
        "meta_inclination": 0.0198,
        "meta_ra_of_asc_node": 340.0135,
        "meta_arg_of_pericenter": 353.9187,
        "meta_mean_anomaly": 99.9111,
        "meta_ephemeris_type": 0,
        "meta_classification_type": "U",
        "meta_norad_cat_id": 41836,
        "meta_element_set_no": 999,
        "meta_rev_at_epoch": 3339,
        "meta_bstar": 0,
        "meta_mean_motion_dot": 0,
        "meta_mean_motion_ddot": 0,
        "tle_line1": "1 41836U 16064A   25352.57129630  .00000000  00000+0  00000+0 0  9997",
        "tle_line2": "2 41836   0.0198 340.0135 0001906 353.9187  99.9111  1.00268189 33393"
      },
      "geometry": {
        "type": "Point",
        "coordinates": [
          -137.50158986647241,
          -0.040161736071042974
        ]
      }
    }
  ]
}